ERS-1                   
1 21574U 91050A   26073.91065227  .00000364  00000+0  13112-3 0  9997
2 21574  98.7877  92.2764 0031921 184.8667 175.2214 14.39453893816481
ARIANE 40 R/B           
1 21610U 91050F   26073.87983769  .00000335  00000+0  11282-3 0  9997
2 21610  98.2002 125.9213 0004189  69.8913 290.2728 14.42897826819744
INTERCOSMOS 25          
1 21819U 91086A   26073.94105095  .00002258  00000+0  43554-3 0  9996
2 21819  82.6045 306.8342 1486861 105.6218 271.3487 12.12019642497326
SL-8 R/B                
1 21876U 92008B   26073.89490420  .00000013  00000+0 -27153-5 0  9994
2 21876  82.9221 263.9050 0035742 119.2168 352.3492 13.75969771710139
SL-8 R/B                
1 21938U 92020B   26073.72143369  .00000050  00000+0  36151-4 0  9993
2 21938  82.9329 150.0260 0027571 284.1200 187.5096 13.75549934701825
USA 81                  
1 21949U 92023A   26073.89813136  .00000187  00000+0  61695-4 0  9994
2 21949  85.0074 128.4362 0002323  72.9970 287.1477 14.32369784 95536
COSMOS 2219             
1 22219U 92076A   26073.89708824 -.00000022  00000+0  12937-4 0  9994
2 22219  71.0641   7.1829 0018670 199.7895 160.2506 14.14093688719117
SL-16 R/B               
1 22220U 92076B   26073.72882044 -.00000010  00000+0  18633-4 0  9991
2 22220  71.0007 177.7596 0010521  87.0211  74.3889 14.16859195722543
COSMOS 2221             
1 22236U 92080A   26073.92067431  .00002140  00000+0  18714-3 0  9994
2 22236  82.5006 274.0693 0014499 169.5622 190.5904 14.96224196781577
SL-16 R/B               
1 22285U 92093B   26073.89842404 -.00000035  00000+0  66926-5 0  9991
2 22285  71.0241 353.3324 0006309 288.3571  71.6865 14.15447059713892
COSMOS 2228             
1 22286U 92094A   26073.93355759  .00002716  00000+0  23196-3 0  9997
2 22286  82.5160 232.2888 0016622 285.5858  74.3529 14.97220812776843
SL-16 R/B               
1 22566U 93016B   26073.79799642 -.00000113  00000+0 -33599-4 0  9990
2 22566  71.0082 204.4520 0012143 307.3731  52.6285 14.15309283702893
