CCSDS_OMM_VERS = 2.0
CREATION_DATE  = 
ORIGINATOR     = 

OBJECT_NAME    = ERS-1
OBJECT_ID      = 1991-050A
CENTER_NAME    = EARTH
REF_FRAME      = TEME
TIME_SYSTEM    = UTC
MEAN_ELEMENT_THEORY = SGP/SGP4

EPOCH          = 2026-03-14T21:51:20.356128
MEAN_MOTION    = 14.39453893
ECCENTRICITY   = .00319217
INCLINATION    = 98.7877
RA_OF_ASC_NODE = 92.2764
ARG_OF_PERICENTER = 184.8667
MEAN_ANOMALY   = 175.2214

EPHEMERIS_TYPE = 0
CLASSIFICATION_TYPE = U
NORAD_CAT_ID   = 21574
ELEMENT_SET_NO = 999
REV_AT_EPOCH   = 81648
BSTAR          = .13112013E-3
MEAN_MOTION_DOT = .364E-5
MEAN_MOTION_DDOT = 0

CCSDS_OMM_VERS = 2.0
CREATION_DATE  = 
ORIGINATOR     = 

OBJECT_NAME    = ARIANE 40 R/B
OBJECT_ID      = 1991-050F
CENTER_NAME    = EARTH
REF_FRAME      = TEME
TIME_SYSTEM    = UTC
MEAN_ELEMENT_THEORY = SGP/SGP4

EPOCH          = 2026-03-14T21:06:57.976416
MEAN_MOTION    = 14.42897826
ECCENTRICITY   = .0004189
INCLINATION    = 98.2002
RA_OF_ASC_NODE = 125.9213
ARG_OF_PERICENTER = 69.8913
MEAN_ANOMALY   = 290.2728

EPHEMERIS_TYPE = 0
CLASSIFICATION_TYPE = U
NORAD_CAT_ID   = 21610
ELEMENT_SET_NO = 999
REV_AT_EPOCH   = 81974
BSTAR          = .11281588E-3
MEAN_MOTION_DOT = .335E-5
MEAN_MOTION_DDOT = 0

CCSDS_OMM_VERS = 2.0
CREATION_DATE  = 
ORIGINATOR     = 

OBJECT_NAME    = INTERCOSMOS 25
OBJECT_ID      = 1991-086A
CENTER_NAME    = EARTH
REF_FRAME      = TEME
TIME_SYSTEM    = UTC
MEAN_ELEMENT_THEORY = SGP/SGP4

EPOCH          = 2026-03-14T22:35:06.802080
MEAN_MOTION    = 12.12019642
ECCENTRICITY   = .14868611
INCLINATION    = 82.6045
RA_OF_ASC_NODE = 306.8342
ARG_OF_PERICENTER = 105.6218
MEAN_ANOMALY   = 271.3487

EPHEMERIS_TYPE = 0
CLASSIFICATION_TYPE = U
NORAD_CAT_ID   = 21819
ELEMENT_SET_NO = 999
REV_AT_EPOCH   = 49732
BSTAR          = .43553821E-3
MEAN_MOTION_DOT = .2258E-4
MEAN_MOTION_DDOT = 0

CCSDS_OMM_VERS = 2.0
CREATION_DATE  = 
ORIGINATOR     = 

OBJECT_NAME    = SL-8 R/B
OBJECT_ID      = 1992-008B
CENTER_NAME    = EARTH
REF_FRAME      = TEME
TIME_SYSTEM    = UTC
MEAN_ELEMENT_THEORY = SGP/SGP4

EPOCH          = 2026-03-14T21:28:39.722880
MEAN_MOTION    = 13.75969771
ECCENTRICITY   = .00357427
INCLINATION    = 82.9221
RA_OF_ASC_NODE = 263.9050
ARG_OF_PERICENTER = 119.2168
MEAN_ANOMALY   = 352.3492

EPHEMERIS_TYPE = 0
CLASSIFICATION_TYPE = U
NORAD_CAT_ID   = 21876
ELEMENT_SET_NO = 999
REV_AT_EPOCH   = 71013
BSTAR          = -.2715339E-5
MEAN_MOTION_DOT = .13E-6
MEAN_MOTION_DDOT = 0

CCSDS_OMM_VERS = 2.0
CREATION_DATE  = 
ORIGINATOR     = 

OBJECT_NAME    = SL-8 R/B
OBJECT_ID      = 1992-020B
CENTER_NAME    = EARTH
REF_FRAME      = TEME
TIME_SYSTEM    = UTC
MEAN_ELEMENT_THEORY = SGP/SGP4

EPOCH          = 2026-03-14T17:18:51.870816
MEAN_MOTION    = 13.75549934
ECCENTRICITY   = .00275716
INCLINATION    = 82.9329
RA_OF_ASC_NODE = 150.0260
ARG_OF_PERICENTER = 284.1200
MEAN_ANOMALY   = 187.5096

EPHEMERIS_TYPE = 0
CLASSIFICATION_TYPE = U
NORAD_CAT_ID   = 21938
ELEMENT_SET_NO = 999
REV_AT_EPOCH   = 70182
BSTAR          = .36151231E-4
MEAN_MOTION_DOT = .5E-6
MEAN_MOTION_DDOT = 0

CCSDS_OMM_VERS = 2.0
CREATION_DATE  = 
ORIGINATOR     = 

OBJECT_NAME    = USA 81
OBJECT_ID      = 1992-023A
CENTER_NAME    = EARTH
REF_FRAME      = TEME
TIME_SYSTEM    = UTC
MEAN_ELEMENT_THEORY = SGP/SGP4

EPOCH          = 2026-03-14T21:33:18.549504
MEAN_MOTION    = 14.32369784
ECCENTRICITY   = .00023237
INCLINATION    = 85.0074
RA_OF_ASC_NODE = 128.4362
ARG_OF_PERICENTER = 72.9970
MEAN_ANOMALY   = 287.1477

EPHEMERIS_TYPE = 0
CLASSIFICATION_TYPE = U
NORAD_CAT_ID   = 21949
ELEMENT_SET_NO = 999
REV_AT_EPOCH   = 9553
BSTAR          = .61694991E-4
MEAN_MOTION_DOT = .187E-5
MEAN_MOTION_DDOT = 0

CCSDS_OMM_VERS = 2.0
CREATION_DATE  = 
ORIGINATOR     = 

OBJECT_NAME    = COSMOS 2219
OBJECT_ID      = 1992-076A
CENTER_NAME    = EARTH
REF_FRAME      = TEME
TIME_SYSTEM    = UTC
MEAN_ELEMENT_THEORY = SGP/SGP4

EPOCH          = 2026-03-14T21:31:48.423936
MEAN_MOTION    = 14.14093688
ECCENTRICITY   = .00186704
INCLINATION    = 71.0641
RA_OF_ASC_NODE = 7.1829
ARG_OF_PERICENTER = 199.7895
MEAN_ANOMALY   = 160.2506

EPHEMERIS_TYPE = 0
CLASSIFICATION_TYPE = U
NORAD_CAT_ID   = 22219
ELEMENT_SET_NO = 999
REV_AT_EPOCH   = 71911
BSTAR          = .12937406E-4
MEAN_MOTION_DOT = -.22E-6
MEAN_MOTION_DDOT = 0

CCSDS_OMM_VERS = 2.0
CREATION_DATE  = 
ORIGINATOR     = 

OBJECT_NAME    = SL-16 R/B
OBJECT_ID      = 1992-076B
CENTER_NAME    = EARTH
REF_FRAME      = TEME
TIME_SYSTEM    = UTC
MEAN_ELEMENT_THEORY = SGP/SGP4

EPOCH          = 2026-03-14T17:29:30.086016
MEAN_MOTION    = 14.16859195
ECCENTRICITY   = .00105214
INCLINATION    = 71.0007
RA_OF_ASC_NODE = 177.7596
ARG_OF_PERICENTER = 87.0211
MEAN_ANOMALY   = 74.3889

EPHEMERIS_TYPE = 0
CLASSIFICATION_TYPE = U
NORAD_CAT_ID   = 22220
ELEMENT_SET_NO = 999
REV_AT_EPOCH   = 72254
BSTAR          = .18633084E-4
MEAN_MOTION_DOT = -.1E-6
MEAN_MOTION_DDOT = 0

CCSDS_OMM_VERS = 2.0
CREATION_DATE  = 
ORIGINATOR     = 

OBJECT_NAME    = COSMOS 2221
OBJECT_ID      = 1992-080A
CENTER_NAME    = EARTH
REF_FRAME      = TEME
TIME_SYSTEM    = UTC
MEAN_ELEMENT_THEORY = SGP/SGP4

EPOCH          = 2026-03-14T22:05:46.260384
MEAN_MOTION    = 14.96224196
ECCENTRICITY   = .00144993
INCLINATION    = 82.5006
RA_OF_ASC_NODE = 274.0693
ARG_OF_PERICENTER = 169.5622
MEAN_ANOMALY   = 190.5904

EPHEMERIS_TYPE = 0
CLASSIFICATION_TYPE = U
NORAD_CAT_ID   = 22236
ELEMENT_SET_NO = 999
REV_AT_EPOCH   = 78157
BSTAR          = .18713725E-3
MEAN_MOTION_DOT = .214E-4
MEAN_MOTION_DDOT = 0

CCSDS_OMM_VERS = 2.0
CREATION_DATE  = 
ORIGINATOR     = 

OBJECT_NAME    = SL-16 R/B
OBJECT_ID      = 1992-093B
CENTER_NAME    = EARTH
REF_FRAME      = TEME
TIME_SYSTEM    = UTC
MEAN_ELEMENT_THEORY = SGP/SGP4

EPOCH          = 2026-03-14T21:33:43.837056
MEAN_MOTION    = 14.15447059
ECCENTRICITY   = .00063091
INCLINATION    = 71.0241
RA_OF_ASC_NODE = 353.3324
ARG_OF_PERICENTER = 288.3571
MEAN_ANOMALY   = 71.6865

EPHEMERIS_TYPE = 0
CLASSIFICATION_TYPE = U
NORAD_CAT_ID   = 22285
ELEMENT_SET_NO = 999
REV_AT_EPOCH   = 71389
BSTAR          = .6692648E-5
MEAN_MOTION_DOT = -.35E-6
MEAN_MOTION_DDOT = 0

CCSDS_OMM_VERS = 2.0
CREATION_DATE  = 
ORIGINATOR     = 

OBJECT_NAME    = COSMOS 2228
OBJECT_ID      = 1992-094A
CENTER_NAME    = EARTH
REF_FRAME      = TEME
TIME_SYSTEM    = UTC
MEAN_ELEMENT_THEORY = SGP/SGP4

EPOCH          = 2026-03-14T22:24:19.375776
MEAN_MOTION    = 14.97220812
ECCENTRICITY   = .00166222
INCLINATION    = 82.5160
RA_OF_ASC_NODE = 232.2888
ARG_OF_PERICENTER = 285.5858
MEAN_ANOMALY   = 74.3529

EPHEMERIS_TYPE = 0
CLASSIFICATION_TYPE = U
NORAD_CAT_ID   = 22286
ELEMENT_SET_NO = 999
REV_AT_EPOCH   = 77684
BSTAR          = .23196E-3
MEAN_MOTION_DOT = .2716E-4
MEAN_MOTION_DDOT = 0

CCSDS_OMM_VERS = 2.0
CREATION_DATE  = 
ORIGINATOR     = 

OBJECT_NAME    = SL-16 R/B
OBJECT_ID      = 1993-016B
CENTER_NAME    = EARTH
REF_FRAME      = TEME
TIME_SYSTEM    = UTC
MEAN_ELEMENT_THEORY = SGP/SGP4

EPOCH          = 2026-03-14T19:09:06.890688
MEAN_MOTION    = 14.15309283
ECCENTRICITY   = .00121437
INCLINATION    = 71.0082
RA_OF_ASC_NODE = 204.4520
ARG_OF_PERICENTER = 307.3731
MEAN_ANOMALY   = 52.6285

EPHEMERIS_TYPE = 0
CLASSIFICATION_TYPE = U
NORAD_CAT_ID   = 22566
ELEMENT_SET_NO = 999
REV_AT_EPOCH   = 70289
BSTAR          = -.33599206E-4
MEAN_MOTION_DOT = -.113E-5
MEAN_MOTION_DDOT = 0

